OBJECT C                
1 57582U 23117C   24259.15306245  .00015744  00000+0  76987-3 0  9999
2 57582  97.4795 330.0732 0009639 347.5748  12.5247 15.18265570 60820
